     2.100          NAVIGATION                              RINEX VERSION / TYPE
fic2rin                                 08/06/2016 00:08:41 PGM / RUN BY / DATE
                                                            END OF HEADER
17 16  8  5 10  0  0.0 -.203528907150D-03  .341060513165D-12  .000000000000D+00
     .250000000000D+02  .224375000000D+02  .462662128878D-08 -.726383202513D+00
     .126287341118D-05  .110520889284D-01  .245124101639D-05  .515372265625D+04
     .468000000000D+06 -.316649675369D-07  .186199504345D+01  .147148966789D-06
     .976826143541D+00  .342281250000D+03 -.192558370507D+01 -.853785563596D-08
     .678599694973D-11  .100000000000D+01  .190800000000D+04  .000000000000D+00
     .240000000000D+01  .000000000000D+00 -.107102096081D-07  .250000000000D+02
     .460806000000D+06  .400000000000D+01
18 16  8  5 10  0  0.0  .544066540897D-03  .409272615798D-11  .000000000000D+00
     .710000000000D+02 -.125312500000D+02  .506949687918D-08  .833386487515D+00
    -.607222318649D-06  .172563446686D-01  .119805335999D-04  .515371320152D+04
     .468000000000D+06 -.257045030594D-06 -.240785572323D+01 -.316649675369D-07
     .925268425121D+00  .131531250000D+03 -.186598683633D+01 -.853249826994D-08
     .249653256203D-09  .100000000000D+01  .190800000000D+04  .000000000000D+00
     .240000000000D+01  .000000000000D+00 -.111758708954D-07  .710000000000D+02
     .460806000000D+06  .400000000000D+01
19 16  8  5 10  0  0.0 -.524444505572D-03  .341060513165D-12  .000000000000D+00
     .510000000000D+02  .112812500000D+02  .452518849226D-08  .238709430731D+01
     .162050127983D-06  .106858229265D-01  .213459134102D-05  .515362307739D+04
     .468000000000D+06 -.111758708954D-07  .191061764643D+01 -.199303030968D-06
     .973974064786D+00  .347281250000D+03  .836096663216D+00 -.823605735056D-08
    -.692886004340D-10  .100000000000D+01  .190800000000D+04  .000000000000D+00
     .240000000000D+01  .000000000000D+00 -.149011611938D-07  .510000000000D+02
     .460806000000D+06  .400000000000D+01
20 16  8  5 10  0  0.0  .428300816566D-03  .216004991671D-11  .000000000000D+00
     .180000000000D+02 -.478125000000D+01  .492377652363D-08 -.157141599549D+01
     .745058059692D-08  .461524492130D-02  .120550394058D-04  .515378276634D+04
     .468000000000D+06  .633299350739D-07 -.245954887276D+01  .987201929092D-07
     .926599332399D+00  .123406250000D+03  .140851971480D+01 -.818426947910D-08
     .371801201298D-09  .100000000000D+01  .190800000000D+04  .000000000000D+00
     .240000000000D+01  .000000000000D+00 -.838190317154D-08  .180000000000D+02
     .460806000000D+06  .400000000000D+01
21 16  8  5 10  0  0.0 -.529855024070D-03 -.795807864051D-12  .000000000000D+00
     .640000000000D+02 -.114687500000D+03  .493163399378D-08  .176812147893D+01
    -.643916428089D-05  .233710544417D-01  .600889325142D-05  .515357782936D+04
     .468000000000D+06  .726431608200D-07  .283410578509D+01 -.569969415665D-06
     .937330627949D+00  .253937500000D+03 -.177036135134D+01 -.837642034010D-08
    -.373229832235D-09  .100000000000D+01  .190800000000D+04  .000000000000D+00
     .240000000000D+01  .000000000000D+00 -.977888703346D-08  .640000000000D+02
     .460806000000D+06  .400000000000D+01
22 16  8  5 10  0  0.0  .279391650110D-03 -.954969436862D-11  .000000000000D+00
     .800000000000D+02  .796875000000D+01  .502770942428D-08 -.121492246999D+01
     .631436705589D-06  .757592986338D-02  .108573585749D-04  .515376847839D+04
     .468000000000D+06  .540167093277D-07 -.240735297095D+01  .175088644028D-06
     .923195149824D+00  .149968750000D+03 -.188014429334D+01 -.831356057888D-08
     .407516974718D-09  .100000000000D+01  .190800000000D+04  .000000000000D+00
     .240000000000D+01  .000000000000D+00 -.176951289177D-07  .800000000000D+02
     .460806000000D+06  .400000000000D+01
23 16  8  5 10  0  0.0 -.184938311577D-03 -.147792889038D-11  .000000000000D+00
     .500000000000D+02  .290312500000D+02  .529022035891D-08 -.202946768592D+01
     .113435089588D-05  .111380554736D-01  .433064997196D-05  .515363157463D+04
     .468000000000D+06  .149011611938D-06 -.132872208179D+01 -.745058059692D-07
     .945171143246D+00  .285656250000D+03 -.254164753108D+01 -.843677999718D-08
     .433946647048D-09  .100000000000D+01  .190800000000D+04  .000000000000D+00
     .240000000000D+01  .000000000000D+00 -.200234353542D-07  .500000000000D+02
     .460806000000D+06  .400000000000D+01
24 16  8  5 10  0  0.0 -.211866572499D-04 -.568434188608D-12  .000000000000D+00
     .170000000000D+02 -.416875000000D+02  .501842332319D-08 -.255768992585D+01
    -.227242708206D-05  .451488234103D-02  .833906233311D-05  .515373440361D+04
     .468000000000D+06  .558793544769D-08 -.303248417388D+00 -.128522515297D-06
     .948834433483D+00  .212812500000D+03  .410117504526D+00 -.822248535666D-08
    -.472519682341D-09  .100000000000D+01  .190800000000D+04  .000000000000D+00
     .240000000000D+01  .000000000000D+00  .232830643654D-08  .170000000000D+02
     .460806000000D+06  .400000000000D+01
25 16  8  5 10  0  0.0 -.221439171582D-03 -.693489710102D-11  .000000000000D+00
     .440000000000D+02  .697187500000D+02  .397838000121D-08  .161092650014D+01
     .361539423466D-05  .559317949228D-02  .114664435387D-04  .515372480392D+04
     .468000000000D+06 -.167638063431D-06  .770432888879D+00  .726431608200D-07
     .978536556638D+00  .167437500000D+03  .795888525117D+00 -.778568144774D-08
     .764317551180D-10  .100000000000D+01  .190800000000D+04  .000000000000D+00
     .240000000000D+01  .000000000000D+00  .558793544769D-08  .440000000000D+02
     .460806000000D+06  .400000000000D+01
27 16  8  5 10  0  0.0  .123018864542D-03  .454747350886D-11  .000000000000D+00
     .680000000000D+02  .371562500000D+02  .453233164695D-08 -.740964035326D+00
     .184401869774D-05  .378134194762D-02  .283494591713D-05  .515364488602D+04
     .468000000000D+06  .782310962677D-07  .181166208736D+01  .186264514923D-07
     .971760742878D+00  .332406250000D+03  .342590499207D+00 -.833070415012D-08
     .264296723305D-10  .100000000000D+01  .190800000000D+04  .000000000000D+00
     .240000000000D+01  .000000000000D+00  .186264514923D-08  .680000000000D+02
     .460806000000D+06  .400000000000D+01
28 16  8  5 10  0  0.0  .542293768376D-03  .272848410532D-11  .000000000000D+00
     .200000000000D+01  .799375000000D+02  .393123518030D-08  .105770390310D+00
     .431388616562D-05  .197620070539D-01  .100526958704D-04  .515363244629D+04
     .468000000000D+06 -.262632966042D-06  .845826246093D+00  .000000000000D+00
     .989545042980D+00  .206906250000D+03 -.161326676822D+01 -.807747931658D-08
     .764317551180D-10  .100000000000D+01  .190800000000D+04  .000000000000D+00
     .240000000000D+01  .000000000000D+00 -.107102096081D-07  .200000000000D+01
     .460806000000D+06  .400000000000D+01
29 16  8  5 10  0  0.0  .654274597764D-03 -.682121026330D-12  .000000000000D+00
     .660000000000D+02  .312812500000D+02  .446732893932D-08  .132560633545D+01
     .162050127983D-05  .675023999065D-03  .275857746601D-05  .515376721954D+04
     .468000000000D+06 -.353902578354D-07  .187179350783D+01  .149011611938D-07
     .977827133534D+00  .334312500000D+03  .684595292828D-01 -.827427322812D-08
     .489306095849D-10  .100000000000D+01  .190800000000D+04  .000000000000D+00
     .240000000000D+01  .000000000000D+00 -.102445483208D-07  .660000000000D+02
     .460806000000D+06  .400000000000D+01
30 16  8  5 10  0  0.0  .143797602504D-03  .204636307899D-11  .000000000000D+00
     .860000000000D+02 -.357187500000D+02  .488841790794D-08  .282898952755D+01
    -.175833702087D-05  .235210743267D-02  .912137329578D-05  .515357735634D+04
     .468000000000D+06 -.763684511185D-07 -.211774082406D+00  .111758708954D-07
     .951605849860D+00  .200812500000D+03  .311989312974D+01 -.811033782812D-08
    -.418231706744D-09  .100000000000D+01  .190800000000D+04  .000000000000D+00
     .240000000000D+01  .000000000000D+00  .372529029846D-08  .860000000000D+02
     .460806000000D+06  .400000000000D+01
31 16  8  5 10  0  0.0  .255142338574D-03 -.204636307899D-11  .000000000000D+00
     .190000000000D+02 -.444687500000D+02  .452697428094D-08  .257841404029D+01
    -.210851430893D-05  .816100905649D-02  .859983265400D-05  .515379422188D+04
     .468000000000D+06 -.316649675369D-07 -.245248958644D+00  .180676579475D-06
     .970616853585D+00  .219187500000D+03 -.392505060726D+00 -.792425864861D-08
    -.493591988659D-09  .100000000000D+01  .190800000000D+04  .000000000000D+00
     .240000000000D+01  .000000000000D+00 -.135041773319D-07  .190000000000D+02
     .460806000000D+06  .400000000000D+01
14 16  8  5  9 59 44.0 -.282679684460D-04 -.193267624127D-11  .000000000000D+00
     .000000000000D+00  .246250000000D+02  .496842124040D-08 -.108621682746D+01
     .158324837685D-05  .892254500650D-02  .479258596897D-05  .515403652954D+04
     .467984000000D+06 -.745058059692D-08 -.124898603031D+01  .204890966415D-06
     .963082395379D+00  .289062500000D+03 -.195653363151D+01 -.834534761723D-08
     .276797244002D-09  .100000000000D+01  .190800000000D+04  .000000000000D+00
     .240000000000D+01  .000000000000D+00 -.931322574615D-08  .000000000000D+00
     .462816000000D+06  .400000000000D+01
30 16  8  5  9 59 44.0  .143796205521D-03  .204636307899D-11  .000000000000D+00
     .200000000000D+01 -.357187500000D+02  .488841790794D-08  .282665370234D+01
    -.175833702087D-05  .235210324172D-02  .912137329578D-05  .515357736397D+04
     .467984000000D+06 -.763684511185D-07 -.211773953669D+00  .111758708954D-07
     .951605855712D+00  .200812500000D+03  .311989504909D+01 -.811033782812D-08
    -.418231706744D-09  .100000000000D+01  .190800000000D+04  .000000000000D+00
     .240000000000D+01  .000000000000D+00  .372529029846D-08  .200000000000D+01
     .464016000000D+06  .400000000000D+01
